C/2024 G1 (Wierzchos),e,95.3925,30.6054,128.2233,122.2237,0.0007294,0.96784502,0.2093,08/04.0/2025,2000,g 10.0,4.0
# From MPEC 2025-OF9
C/2024 G2 (ATLAS),e,122.1244,171.3974,328.7383,727.5141,0.0000502,0.99264860,0.0000,06/13.5383/2025,2000,g  7.0,4.0
# From MPC184412
C/2024 G3 (ATLAS),h,01/13.4255/2025,116.8476,220.3491,108.1305,1.000006,0.093566,2000,9.0,4.0
# From MPEC 2025-OF9
C/2024 G4 (PANSTARRS),e,33.0266,152.9801,131.4196,3189,0.0000055,0.99846314,0.0000,03/21.5978/2026,2000,g  8.0,4.0
# From MPEC 2024-JC6
C/2024 G5 (Leonard),e,50.3870,316.3913,209.5821,575.4588,0.0000714,0.99486832,0.0000,09/07.0628/2024,2000,g 13.0,4.0
# From MPEC 2025-OF9
C/2024 G6 (ATLAS),h,02/20.7125/2026,120.4551,250.9518,23.4362,1.002141,6.429879,2000,5.5,4.0
# From MPC184412
C/2024 G7 (ATLAS),h,02/10.0886/2025,131.5145,191.9644,289.6561,1.001916,6.027634,2000,7.0,4.0
# From MPEC 2024-Q05
A/2024 G8,e,97.4160,11.2491,249.1568,141.3668,0.0005864,0.99170613,0.0000,06/15.5781/2024,2000,g 20.0,2.0
# From MPEC 2024-JU4
P/2024 J1 (PANSTARRS),e,13.1595,321.9369,200.3658,3.808673,0.1326000,0.30775151,83.7600,08/04.0/2025,2000,g 14.5,4.0
# From MPEC 2025-OF9
C/2024 J2 (Wierzchos),e,79.2961,189.0574,143.1569,147.7076,0.0005490,0.98773872,0.0000,03/19.7882/2025,2000,g 11.5,4.0
# From MPEC 2025-OF9
C/2024 J3 (ATLAS),h,11/25.3426/2026,75.6408,285.9613,74.0885,1.000685,3.865239,2000,5.0,4.0
# From MPEC 2025-OF9
C/2024 J4 (Lemmon),e,117.5288,19.3073,127.8580,6380,0.0000019,0.99910729,0.0000,04/25.9942/2025,2000,g  8.0,4.0
# From MPEC 2024-LB4
P/2024 K1 (PANSTARRS),e,1.7862,251.6889,351.9214,6.844514,0.0550415,0.49516510,24.8835,08/04.0/2025,2000,g 13.5,4.0
# From MPC185659
C/2024 L1 (PANSTARRS),e,99.1643,45.1395,171.7922,11.46518,0.0253883,0.53353616,2.6120,08/04.0/2025,2000,g 10.0,4.0
# From MPEC 2024-P23
C/2024 L2 (PANSTARRS),e,139.4876,266.2858,345.6138,473.4730,0.0000957,0.98241445,0.0000,06/12.7343/2025,2000,g  7.5,3.2
# From MPEC 2024-RQ6
C/2024 L3 (PANSTARRS),h,11/24.1090/2023,111.5920,294.9964,59.0748,1.003741,6.857889,2000,9.5,4.0
# From MPEC 2025-OF9
C/2024 L5 (ATLAS),h,03/10.3949/2025,166.5728,139.1778,290.5159,1.037079,3.432426,2000,9.0,4.0
# From MPC185659
C/2024 M1 (ATLAS),e,73.7095,76.2140,345.5841,29.78463,0.0060634,0.94281465,1.5583,08/04.0/2025,2000,g 12.0,4.0
# From MPEC 2025-OF9
C/2024 N1 (PANSTARRS),h,10/18.8717/2025,88.7817,323.0223,91.2541,1.001141,4.398253,2000,10.5,4.0
# From MPEC 2025-OF9
C/2024 N3 (Sarneczky),h,04/11.4581/2025,88.7290,82.6087,86.8873,1.001479,5.014599,2000,8.0,4.0
# From MPC185659
C/2024 N4 (Sarneczky),h,01/10.2460/2025,49.7756,339.6557,116.7132,1.004351,5.397892,2000,7.5,4.0
# From MPEC 2024-PC5
C/2024 O1 (PANSTARRS),h,01/28.4597/2023,59.0799,303.3427,349.8830,1.000547,6.606599,2000,8.5,4.0
# From MPEC 2024-UA9
P/2024 O2 (PANSTARRS),e,28.9770,6.8058,310.7843,7.381265,0.0491482,0.49903849,23.1422,08/04.0/2025,2000,g 12.0,4.0
# From MPEC 2025-A40
P/2024 OC2 (PANSTARRS),e,7.6712,136.6159,258.5397,2.625485,0.2316807,0.77417096,69.2004,08/04.0/2025,2000,g 20.5,4.0
# From MPEC 2025-OF9
C/2024 PN7 (PANSTARRS),e,101.2087,358.5843,74.2735,67.24932,0.0017872,0.97732951,0.0000,12/06.4329/2024,2000,g 15.2,4.0
# From MPEC 2024-UQ8
P/2024 Q1 (PANSTARRS),e,5.0105,23.0959,284.5719,3.522172,0.1491036,0.53483630,61.9274,08/04.0/2025,2000,g 17.0,4.0
# From MPC185660
C/2024 Q3 (PANSTARRS),h,03/05.2188/2025,121.3778,337.2878,70.1279,1.001478,2.091562,2000,15.0,4.0
# From MPEC 2025-OF9
C/2024 Q4 (PANSTARRS),e,3.3154,324.2690,133.0501,649.5659,0.0000595,0.99165719,0.0000,11/12.1190/2024,2000,g 10.0,4.0
# From MPEC 2024-TP3
P/2024 R1 (PANSTARRS),e,12.7345,84.9839,230.7264,3.456174,0.1533948,0.49312972,63.5175,08/04.0/2025,2000,g 18.0,4.0
# From MPC182883
P/2024 R2 (PANSTARRS),e,15.1162,193.0007,203.9164,3.148863,0.1763898,0.26871143,54.0364,08/04.0/2025,2000,g 15.5,4.0
# From MPEC 2024-YC7
P/2024 R3 (PANSTARRS),e,14.7135,33.2196,309.3639,3.201988,0.1720182,0.26738881,77.8263,08/04.0/2025,2000,g 15.0,4.0
# From MPEC 2025-OF9
C/2024 R4 (PANSTARRS),h,10/26.6569/2027,95.3646,345.9360,108.9945,1.002591,4.409055,2000,6.5,4.0
# From MPC182883
C/2024 S1 (ATLAS),e,142.0687,347.7373,69.6380,86.93320,0.0012160,0.99990815,0.0000,10/28.4738/2024,2000,g 15.5,4.0
# From MPEC 2025-A40
P/2024 S2 (Rankin),e,7.5260,8.3365,49.1625,5.037594,0.0871705,0.59354547,28.0448,08/04.0/2025,2000,g 15.0,4.0
# From MPC182883
P/2024 T1 (Rankin),e,17.6201,279.7104,164.8641,6.598667,0.0581460,0.65341174,17.8867,08/04.0/2025,2000,g 14.5,4.0
# From MPC184413
P/2024 T2 (Rankin),e,12.9290,113.0612,343.8274,6.171305,0.0642893,0.68040476,15.3441,08/04.0/2025,2000,g 16.0,4.0
# From MPC182883
C/2024 T3 (PANSTARRS),e,53.4647,74.8335,336.8857,87.58862,0.0012024,0.95757306,0.1704,08/04.0/2025,2000,g 11.5,4.0
# From MPEC 2025-OF9
C/2024 T5 (ATLAS),h,05/06.1718/2027,52.3868,100.6800,352.4409,1.002300,3.841212,2000,5.5,4.0
# From MPC182883
C/2024 U1 (PANSTARRS),e,128.7550,270.2637,188.0840,482.1063,0.0000931,0.98996833,0.0000,06/30.4450/2024,2000,g 10.0,4.0
# From MPC182883
A/2024 U2,h,01/14.5334/2026,120.6718,56.0701,29.7793,1.003503,8.180744,2000,12.1,2.0
# From MPC185660
C/2024 V1 (Borisov),e,54.6259,328.1947,168.6687,232.1356,0.0002787,0.99001239,0.0000,04/04.1129/2025,2000,g 14.8,4.0
# From MPEC 2024-YC7
C/2024 V2 (Sarneczky),e,95.9722,102.2012,13.7260,39.31098,0.0039988,0.96837703,1.0924,08/04.0/2025,2000,g 19.0,4.0
# From MPC182883
C/2024 W1 (PANSTARRS),e,83.2007,310.7267,256.7404,44.89137,0.0032769,0.94295694,0.4519,08/04.0/2025,2000,g 15.0,4.0
# From MPC182883
A/2024 W2,h,02/27.4109/2025,116.6132,241.9376,168.0030,1.002440,3.720686,2000,15.6,2.0
# From MPC182884
C/2024 X1 (Fazekas),e,6.4656,351.9737,124.3725,9.453732,0.0339078,0.59627798,0.0196,08/04.0/2025,2000,g 11.3,4.0
# From MPC185660
C/2024 X2 (ATLAS),e,109.2214,122.5227,315.7843,50.59510,0.0027387,0.92733875,0.0742,08/04.0/2025,2000,g  9.6,4.0
# From MPC185660
P/2024 X3 (PANSTARRS),e,2.9723,113.3646,352.9494,6.993665,0.0532901,0.62619044,17.7036,08/04.0/2025,2000,g 14.6,4.0
# From MPEC 2025-A40
C/2024 X4 (PANSTARRS),e,34.6685,258.9438,153.2931,10.06589,0.0308621,0.64188510,359.1074,08/04.0/2025,2000,g 12.6,4.0
# From MPC185660
C/2024 XK14 (Bok),e,109.2142,239.0891,243.4888,16.99984,0.0140617,0.87884541,1.0558,08/04.0/2025,2000,g 15.5,4.0
# From MPC182884
C/2024 Y1 (Masek),e,64.7793,112.5426,238.1361,62.55780,0.0019920,0.98685981,0.0000,11/26.8998/2024,2000,g 17.6,4.0
# From MPC182884
A/2025 A1,h,03/12.4718/2027,33.4408,101.3307,68.0946,1.004243,5.340816,2000,11.8,2.0
# From MPC184414
P/2025 A2 (PANSTARRS),e,20.7344,189.3186,278.0466,5.083691,0.0859875,0.32206212,25.9986,08/04.0/2025,2000,g 13.2,4.0
# From MPC184414
C/2025 A3 (Tsuchinshan),e,9.9765,322.4328,222.3112,10.19427,0.0302810,0.43181300,353.2450,08/04.0/2025,2000,g  9.0,4.0
# From MPC185660
C/2025 A4 (PANSTARRS),e,32.0253,69.9137,102.7990,11.05384,0.0268185,0.65403476,5.4394,08/04.0/2025,2000,g 12.4,4.0
# From MPC184414
C/2025 A6 (Lemmon),e,143.6648,108.0972,132.9625,122.6232,0.0007258,0.99567793,0.0000,11/08.5427/2025,2000,g 13.2,4.0
# From MPC184414
A/2025 A7,e,133.6515,348.8468,195.5719,4593,0.0000032,0.99937216,0.0000,03/28.1186/2025,2000,g 14.0,2.0
# From MPC182885
C/2025 B1 (PANSTARRS),h,06/26.7659/2025,39.6807,102.8415,23.5253,1.000574,3.530888,2000,12.0,4.0
# From MPC184414
C/2025 B2 (Borisov),h,09/10.0489/2026,91.7515,84.8731,78.7332,1.000216,8.244699,2000,6.2,4.0
# From MPC185660
P/2025 C1 (ATLAS),e,7.5169,9.1017,186.8041,4.195734,0.1146812,0.34551278,20.4620,08/04.0/2025,2000,g 10.8,4.0
# From MPC185660
C/2025 D1 (Groeller),h,05/20.3397/2028,84.4614,312.8997,185.9006,1.002974,14.118417,2000,1.2,4.0
# From MPC182885
P/2025 D2 (PANSTARRS),e,5.3344,256.7333,314.0462,8.922452,0.0369809,0.17886035,316.0241,08/04.0/2025,2000,g  8.2,4.0
# From MPEC 2025-OF9
P/2025 D3 (PANSTARRS),e,9.6438,186.6360,294.4807,3.967159,0.1247340,0.25245532,46.6775,08/04.0/2025,2000,g 14.7,4.0
# From MPEC 2025-OF9
P/2025 D4 (ATLAS),e,15.9403,233.1200,332.8882,8.904589,0.0370923,0.63446699,6.3323,08/04.0/2025,2000,g 13.2,4.0
# From MPC184415
C/2025 D5 (PANSTARRS),e,73.3809,0.7374,211.4933,3281,0.0000052,0.99938678,0.0000,05/13.2921/2025,2000,g 17.6,4.0
# From MPC184415
C/2025 D6 (ATLAS),e,145.7903,151.4873,285.4061,1575,0.0000158,0.99840976,0.0000,12/11.3865/2024,2000,g 13.2,4.0
# From MPC184415
C/2025 E1 (PANSTARRS),e,69.0644,344.5960,274.4212,1462,0.0000176,0.99726582,0.0000,09/23.7378/2026,2000,g  9.7,4.0
# From MPC185661
C/2025 F1 (ATLAS),e,109.2372,122.7054,334.2272,288.5675,0.0002011,0.99629226,0.0000,04/20.4716/2025,2000,g 18.0,4.0
# From MPC184415
C/2025 F2 (SWAN),h,05/01.1610/2025,90.3650,329.8403,153.8367,1.000097,0.333494,2000,11.2,4.0
# From MPEC 2025-OF9
C/2025 J1 (Borisov),e,95.4453,273.9751,166.6187,1123,0.0000262,0.99681095,0.0000,06/11.8134/2026,2000,g  9.1,4.0
# From MPEC 2025-OF9
C/2025 K1 (ATLAS),h,10/08.4392/2025,147.8650,97.5563,271.0229,1.000284,0.334208,2000,12.2,4.0
# From MPEC 2025-OF9
C/2025 K2 (PANSTARRS),e,113.9783,113.8282,232.4665,25.34851,0.0077228,0.88702916,359.3642,08/04.0/2025,2000,g 13.7,4.0
# From MPEC 2025-OF9
C/2025 K3 (PANSTARRS),h,12/14.4169/2028,104.9333,350.6199,188.6160,1.001012,3.469375,2000,6.4,4.0
# From MPC185661
C/2025 K4 (Siverd),e,38.4995,297.1566,326.5437,40.39898,0.0038384,0.93728440,0.0294,08/04.0/2025,2000,g 14.1,4.0
# From MPEC 2025-OF9
C/2025 L1 (ATLAS),h,01/12.7403/2026,114.1373,208.1070,341.2576,1.001422,1.679477,2000,11.4,4.0
# From MPEC 2025-OF9
C/2025 L2,e,86.5834,134.9851,232.6442,520.6461,0.0000830,0.99455748,0.0000,12/20.6616/2025,2000,g 11.7,4.0
# From MPEC 2025-OF9
C/2025 M1 (PANSTARRS),e,64.9006,66.9586,230.4248,5709,0.0000023,0.99810299,0.0000,08/03.2184/2029,2000,g  2.9,4.0
# From MPEC 2025-OF9
C/2025 M2 (PANSTARRS),h,11/23.5163/2027,173.2145,305.5350,96.7725,1.001887,2.720018,2000,13.4,4.0
# From MPC185662
C/2025 M3 (PANSTARRS),e,137.0460,65.4336,198.1932,304.5093,0.0001855,0.97889595,0.0000,08/05.3186/2026,2000,g  9.0,4.0
# From MPEC 2025-OF9
